PCSAT (NO-44)           
1 26931U 01043C   26066.18354100  .00000212  00000+0  10989-3 0  9995
2 26931  67.0508 148.0942 0007005 265.2738  94.7564 14.31910626275846
PROBA-1                 
1 26958U 01049B   26066.23424685  .00002234  00000+0  14845-3 0  9993
2 26958  97.9623  71.2264 0056842 107.1511 253.5950 15.07003752328261
SPOT 5                  
1 27421U 02021A   26066.09707520  .00000540  00000+0  12358-3 0  9991
2 27421  97.9992 109.4256 0128746 233.6378 125.2884 14.54657432248005
FENGYUN 1D              
1 27431U 02024B   26066.12162653  .00000069  00000+0  64051-4 0  9995
2 27431  98.9664 116.8564 0015712 166.6899 193.4689 14.10209196225094
SAUDISAT 1C (SO-50)     
1 27607U 02058C   26066.18941992  .00002074  00000+0  26196-3 0  9999
2 27607  64.5520  84.5051 0075199 281.1523  78.1135 14.82770448249333
CORIOLIS                
1 27640U 03001A   26066.02191383  .00000165  00000+0  98034-4 0  9999
2 27640  98.7162  74.4553 0014663 143.8235 216.3936 14.19911487199721
CUTE-1 (CO-55)          
1 27844U 03031E   26065.96450898  .00000418  00000+0  20017-3 0  9995
2 27844  98.6780  75.7971 0010585 119.5034 240.7202 14.24263294177125
CUBESAT XI-IV (CO-57)   
1 27848U 03031J   26065.97229987  .00000340  00000+0  16835-3 0  9990
2 27848  98.6809  75.5995 0010270 135.9414 224.2584 14.23558791176835
MOZHAETS 4 (RS22)       
1 27939U 03042A   26066.21805517  .00001569  00000+0  25104-3 0  9993
2 27939  98.3432 247.7103 0010383 228.6467 246.6480 14.73244933200535
IRS-P6 (RESOURCESAT-1)  
1 28051U 03046A   26066.23216503  .00000350  00000+0  13152-3 0  9993
2 28051  98.2046 107.6771 0062967 288.6261 148.1512 14.36115836165898
SAUDISAT 2              
1 28371U 04025F   26066.02303333  .00000430  00000+0  10730-3 0  9999
2 28371  98.5497  63.3784 0023586 249.7260 110.1401 14.56613337150878
COSMOS 2407             
1 28380U 04028A   26066.20961669  .00000087  00000+0  73314-4 0  9990
2 28380  82.9636 150.3617 0039507 175.6427 213.6710 13.76324720 85857
COSMOS 2414             
1 28521U 05002A   26066.16700417  .00000101  00000+0  71598-4 0  9996
2 28521  82.9485 120.8266 0038684 259.8206  99.8593 13.87915167 69660
INMARSAT 4-F1           
1 28628U 05009A   26065.75948987  .00000031  00000+0  00000+0 0  9998
2 28628   5.0305  42.7326 0002864 330.9087 242.3633  1.00272777 76644
HAMSAT (VO-52)          
1 28650U 05017B   26066.02225274  .00005810  00000+0  37285-3 0  9999
2 28650  97.9993  84.7891 0020353  27.5552 332.6750 15.08728167131359
NOAA 18                 
1 28654U 05018A   26066.20622222  .00000069  00000+0  59540-4 0  9998
2 28654  98.8159 147.3483 0015318  82.0441 278.2469 14.13710146 71907
SJ-7                    
1 28737U 05024A   26066.03719313  .00009668  00000+0  45163-3 0  9995
2 28737  97.7405  93.4546 0017046  32.4963 327.7316 15.19900744132507
